{
  "type": "FeatureCollection",
  "features": [
    {
      "type": "Feature",
      "properties": {
        "norad_id": 43207,
        "name": "BEIDOU-3 M4 (C22)",
        "group": "beidou",
        "lat": 52.183398057587176,
        "lon": -169.4726889553705,
        "alt_km": 21524.98066495605,
        "timestamp": "2025-12-22T16:55:17.728335+00:00",
        "meta_object_name": "BEIDOU-3 M4 (C22)",
        "meta_object_id": "2018-018A",
        "meta_epoch": "2025-12-20T09:29:07.105632",
        "meta_mean_motion": 1.86231247,
        "meta_eccentricity": 0.0004167,
        "meta_inclination": 56.4917,
        "meta_ra_of_asc_node": 69.0512,
        "meta_arg_of_pericenter": 3.4046,
        "meta_mean_anomaly": 356.639,
        "meta_ephemeris_type": 0,
        "meta_classification_type": "U",
        "meta_norad_cat_id": 43207,
        "meta_element_set_no": 999,
        "meta_rev_at_epoch": 5341,
        "meta_bstar": 0,
        "meta_mean_motion_dot": -4.3e-07,
        "meta_mean_motion_ddot": 0,
        "tle_line1": "1 43207U 18018A   25354.39522113 -.00000043  00000+0  00000+0 0  9995",
        "tle_line2": "2 43207  56.4917  69.0512 0004167   3.4046 356.6390  1.86231247 53417"
      },
      "geometry": {
        "type": "Point",
        "coordinates": [
          -169.4726889553705,
          52.183398057587176
        ]
      }
    },
    {
      "type": "Feature",
      "properties": {
        "norad_id": 43208,
        "name": "BEIDOU-3 M3 (C21)",
        "group": "beidou",
        "lat": 48.591741995910276,
        "lon": 117.6025417280531,
        "alt_km": 21529.00286557409,
        "timestamp": "2025-12-22T16:55:17.728347+00:00",
        "meta_object_name": "BEIDOU-3 M3 (C21)",
        "meta_object_id": "2018-018B",
        "meta_epoch": "2025-12-22T01:44:32.904384",
        "meta_mean_motion": 1.86231411,
        "meta_eccentricity": 0.00070212,
        "meta_inclination": 56.4927,
        "meta_ra_of_asc_node": 68.9999,
        "meta_arg_of_pericenter": 313.8798,
        "meta_mean_anomaly": 46.1114,
        "meta_ephemeris_type": 0,
        "meta_classification_type": "U",
        "meta_norad_cat_id": 43208,
        "meta_element_set_no": 999,
        "meta_rev_at_epoch": 5344,
        "meta_bstar": 0,
        "meta_mean_motion_dot": -3e-07,
        "meta_mean_motion_ddot": 0,
        "tle_line1": "1 43208U 18018B   25356.07260306 -.00000030  00000+0  00000+0 0  9992",
        "tle_line2": "2 43208  56.4927  68.9999 0007021 313.8798  46.1114  1.86231411 53441"
      },
      "geometry": {
        "type": "Point",
        "coordinates": [
          117.6025417280531,
          48.591741995910276
        ]
      }
    },
    {
      "type": "Feature",
      "properties": {
        "norad_id": 43245,
        "name": "BEIDOU-3 M9 (C29)",
        "group": "beidou",
        "lat": -53.38874390526561,
        "lon": -128.62848124864257,
        "alt_km": 21529.85569129827,
        "timestamp": "2025-12-22T16:55:17.728358+00:00",
        "meta_object_name": "BEIDOU-3 M9 (C29)",
        "meta_object_id": "2018-029A",
        "meta_epoch": "2025-12-21T18:02:44.382048",
        "meta_mean_motion": 1.8622836,
        "meta_eccentricity": 0.00015407,
        "meta_inclination": 54.3576,
        "meta_ra_of_asc_node": 306.1541,
        "meta_arg_of_pericenter": 290.4225,
        "meta_mean_anomaly": 69.56,
        "meta_ephemeris_type": 0,
        "meta_classification_type": "U",
        "meta_norad_cat_id": 43245,
        "meta_element_set_no": 999,
        "meta_rev_at_epoch": 5259,
        "meta_bstar": 0,
        "meta_mean_motion_dot": -5.9e-07,
        "meta_mean_motion_ddot": 0,
        "tle_line1": "1 43245U 18029A   25355.75190257 -.00000059  00000+0  00000+0 0  9997",
        "tle_line2": "2 43245  54.3576 306.1541 0001540 290.4225  69.5600  1.86228360 52597"
      },
      "geometry": {
        "type": "Point",
        "coordinates": [
          -128.62848124864257,
          -53.38874390526561
        ]
      }
    },
    {
      "type": "Feature",
      "properties": {
        "norad_id": 43246,
        "name": "BEIDOU-3 M10 (C30)",
        "group": "beidou",
        "lat": -29.69162828262631,
        "lon": -77.99798863455604,
        "alt_km": 21522.9329358157,
        "timestamp": "2025-12-22T16:55:17.728370+00:00",
        "meta_object_name": "BEIDOU-3 M10 (C30)",
        "meta_object_id": "2018-029B",
        "meta_epoch": "2025-12-21T16:29:26.843136",
        "meta_mean_motion": 1.8622925,
        "meta_eccentricity": 0.00042885,
        "meta_inclination": 54.3548,
        "meta_ra_of_asc_node": 306.183,
        "meta_arg_of_pericenter": 3.3275,
        "meta_mean_anomaly": 356.674,
        "meta_ephemeris_type": 0,
        "meta_classification_type": "U",
        "meta_norad_cat_id": 43246,
        "meta_element_set_no": 999,
        "meta_rev_at_epoch": 5257,
        "meta_bstar": 0,
        "meta_mean_motion_dot": -6e-07,
        "meta_mean_motion_ddot": 0,
        "tle_line1": "1 43246U 18029B   25355.68711624 -.00000060  00000+0  00000+0 0  9999",
        "tle_line2": "2 43246  54.3548 306.1830 0004288   3.3275 356.6740  1.86229250 52578"
      },
      "geometry": {
        "type": "Point",
        "coordinates": [
          -77.99798863455604,
          -29.69162828262631
        ]
      }
    },
    {
      "type": "Feature",
      "properties": {
        "norad_id": 43539,
        "name": "BEIDOU-2 IGSO-7 (C16)",
        "group": "beidou",
        "lat": -49.547852166829685,
        "lon": 109.7397049683077,
        "alt_km": 35579.70284282346,
        "timestamp": "2025-12-22T16:55:17.728382+00:00",
        "meta_object_name": "BEIDOU-2 IGSO-7 (C16)",
        "meta_object_id": "2018-057A",
        "meta_epoch": "2025-12-15T07:47:07.120608",
        "meta_mean_motion": 1.00256546,
        "meta_eccentricity": 0.00926218,
        "meta_inclination": 55.1766,
        "meta_ra_of_asc_node": 164.6485,
        "meta_arg_of_pericenter": 235.2644,
        "meta_mean_anomaly": 271.8458,
        "meta_ephemeris_type": 0,
        "meta_classification_type": "U",
        "meta_norad_cat_id": 43539,
        "meta_element_set_no": 999,
        "meta_rev_at_epoch": 2728,
        "meta_bstar": 0,
        "meta_mean_motion_dot": -2.3e-07,
        "meta_mean_motion_ddot": 0,
        "tle_line1": "1 43539U 18057A   25349.32438797 -.00000023  00000+0  00000+0 0  9995",
        "tle_line2": "2 43539  55.1766 164.6485 0092621 235.2644 271.8458  1.00256546 27289"
      },
      "geometry": {
        "type": "Point",
        "coordinates": [
          109.7397049683077,
          -49.547852166829685
        ]
      }
    },
    {
      "type": "Feature",
      "properties": {
        "norad_id": 43581,
        "name": "BEIDOU-3 M5 (C23)",
        "group": "beidou",
        "lat": 6.510233294151834,
        "lon": 3.562364805352349,
        "alt_km": 21532.974967426875,
        "timestamp": "2025-12-22T16:55:17.728395+00:00",
        "meta_object_name": "BEIDOU-3 M5 (C23)",
        "meta_object_id": "2018-062A",
        "meta_epoch": "2025-12-20T20:06:28.321920",
        "meta_mean_motion": 1.86228978,
        "meta_eccentricity": 0.00019384,
        "meta_inclination": 54.0899,
        "meta_ra_of_asc_node": 188.3678,
        "meta_arg_of_pericenter": 1.5281,
        "meta_mean_anomaly": 358.5256,
        "meta_ephemeris_type": 0,
        "meta_classification_type": "U",
        "meta_norad_cat_id": 43581,
        "meta_element_set_no": 999,
        "meta_rev_at_epoch": 5031,
        "meta_bstar": 0,
        "meta_mean_motion_dot": 9.5e-07,
        "meta_mean_motion_ddot": 0,
        "tle_line1": "1 43581U 18062A   25354.83782780  .00000095  00000+0  00000+0 0  9992",
        "tle_line2": "2 43581  54.0899 188.3678 0001938   1.5281 358.5256  1.86228978 50311"
      },
      "geometry": {
        "type": "Point",
        "coordinates": [
          3.562364805352349,
          6.510233294151834
        ]
      }
    },
    {
      "type": "Feature",
      "properties": {
        "norad_id": 43582,
        "name": "BEIDOU-3 M6 (C24)",
        "group": "beidou",
        "lat": -53.59189342859918,
        "lon": 87.77242360137285,
        "alt_km": 21551.74677038511,
        "timestamp": "2025-12-22T16:55:17.728406+00:00",
        "meta_object_name": "BEIDOU-3 M6 (C24)",
        "meta_object_id": "2018-062B",
        "meta_epoch": "2025-12-21T18:35:38.750784",
        "meta_mean_motion": 1.86229861,
        "meta_eccentricity": 0.00078414,
        "meta_inclination": 54.0893,
        "meta_ra_of_asc_node": 188.325,
        "meta_arg_of_pericenter": 48.2349,
        "meta_mean_anomaly": 311.8795,
        "meta_ephemeris_type": 0,
        "meta_classification_type": "U",
        "meta_norad_cat_id": 43582,
        "meta_element_set_no": 999,
        "meta_rev_at_epoch": 5033,
        "meta_bstar": 0,
        "meta_mean_motion_dot": 9.4e-07,
        "meta_mean_motion_ddot": 0,
        "tle_line1": "1 43582U 18062B   25355.77475406  .00000094  00000+0  00000+0 0  9990",
        "tle_line2": "2 43582  54.0893 188.3250 0007841  48.2349 311.8795  1.86229861 50338"
      },
      "geometry": {
        "type": "Point",
        "coordinates": [
          87.77242360137285,
          -53.59189342859918
        ]
      }
    }
  ]
}